CCSDS_OMM_VERS = 2.0
CREATION_DATE  = 
ORIGINATOR     = 

OBJECT_NAME    = ATLAS CENTAUR R/B
OBJECT_ID      = 1972-065B
CENTER_NAME    = EARTH
REF_FRAME      = TEME
TIME_SYSTEM    = UTC
MEAN_ELEMENT_THEORY = SGP/SGP4

EPOCH          = 2026-03-22T12:44:38.271264
MEAN_MOTION    = 14.77721635
ECCENTRICITY   = .00329269
INCLINATION    = 35.0005
RA_OF_ASC_NODE = 230.4957
ARG_OF_PERICENTER = 118.6517
MEAN_ANOMALY   = 241.7501

EPHEMERIS_TYPE = 0
CLASSIFICATION_TYPE = U
NORAD_CAT_ID   = 6155
ELEMENT_SET_NO = 999
REV_AT_EPOCH   = 84316
BSTAR          = .1826822E-3
MEAN_MOTION_DOT = .1319E-4
MEAN_MOTION_DDOT = 0

CCSDS_OMM_VERS = 2.0
CREATION_DATE  = 
ORIGINATOR     = 

OBJECT_NAME    = SL-8 R/B
OBJECT_ID      = 1975-112B
CENTER_NAME    = EARTH
REF_FRAME      = TEME
TIME_SYSTEM    = UTC
MEAN_ELEMENT_THEORY = SGP/SGP4

EPOCH          = 2026-03-22T20:36:08.240544
MEAN_MOTION    = 14.38211257
ECCENTRICITY   = .00144632
INCLINATION    = 74.0636
RA_OF_ASC_NODE = 354.6897
ARG_OF_PERICENTER = 82.4107
MEAN_ANOMALY   = 277.8689

EPHEMERIS_TYPE = 0
CLASSIFICATION_TYPE = U
NORAD_CAT_ID   = 8459
ELEMENT_SET_NO = 999
REV_AT_EPOCH   = 63376
BSTAR          = .93725409E-4
MEAN_MOTION_DOT = .259E-5
MEAN_MOTION_DDOT = 0

CCSDS_OMM_VERS = 2.0
CREATION_DATE  = 
ORIGINATOR     = 

OBJECT_NAME    = SL-3 R/B
OBJECT_ID      = 1977-057B
CENTER_NAME    = EARTH
REF_FRAME      = TEME
TIME_SYSTEM    = UTC
MEAN_ELEMENT_THEORY = SGP/SGP4

EPOCH          = 2026-03-22T22:12:53.820288
MEAN_MOTION    = 15.45861979
ECCENTRICITY   = .00064409
INCLINATION    = 97.5793
RA_OF_ASC_NODE = 254.4337
ARG_OF_PERICENTER = 228.7137
MEAN_ANOMALY   = 131.3557

EPHEMERIS_TYPE = 0
CLASSIFICATION_TYPE = U
NORAD_CAT_ID   = 10114
ELEMENT_SET_NO = 999
REV_AT_EPOCH   = 67037
BSTAR          = .30603954E-3
MEAN_MOTION_DOT = .14783E-3
MEAN_MOTION_DDOT = 0

CCSDS_OMM_VERS = 2.0
CREATION_DATE  = 
ORIGINATOR     = 

OBJECT_NAME    = SEASAT 1
OBJECT_ID      = 1978-064A
CENTER_NAME    = EARTH
REF_FRAME      = TEME
TIME_SYSTEM    = UTC
MEAN_ELEMENT_THEORY = SGP/SGP4

EPOCH          = 2026-03-22T21:58:17.137632
MEAN_MOTION    = 14.46170608
ECCENTRICITY   = .00025375
INCLINATION    = 108.0084
RA_OF_ASC_NODE = 153.2513
ARG_OF_PERICENTER = 279.6203
MEAN_ANOMALY   = 80.4655

EPHEMERIS_TYPE = 0
CLASSIFICATION_TYPE = U
NORAD_CAT_ID   = 10967
ELEMENT_SET_NO = 999
REV_AT_EPOCH   = 50842
BSTAR          = .10753415E-3
MEAN_MOTION_DOT = .247E-5
MEAN_MOTION_DDOT = 0

CCSDS_OMM_VERS = 2.0
CREATION_DATE  = 
ORIGINATOR     = 

OBJECT_NAME    = SL-14 R/B
OBJECT_ID      = 1979-011B
CENTER_NAME    = EARTH
REF_FRAME      = TEME
TIME_SYSTEM    = UTC
MEAN_ELEMENT_THEORY = SGP/SGP4

EPOCH          = 2026-03-22T10:59:16.886112
MEAN_MOTION    = 14.91923548
ECCENTRICITY   = .00165496
INCLINATION    = 82.5205
RA_OF_ASC_NODE = 84.4511
ARG_OF_PERICENTER = 20.5149
MEAN_ANOMALY   = 339.6732

EPHEMERIS_TYPE = 0
CLASSIFICATION_TYPE = U
NORAD_CAT_ID   = 11267
ELEMENT_SET_NO = 999
REV_AT_EPOCH   = 53068
BSTAR          = .61911566E-4
MEAN_MOTION_DOT = .653E-5
MEAN_MOTION_DDOT = 0

CCSDS_OMM_VERS = 2.0
CREATION_DATE  = 
ORIGINATOR     = 

OBJECT_NAME    = SL-8 R/B
OBJECT_ID      = 1979-089B
CENTER_NAME    = EARTH
REF_FRAME      = TEME
TIME_SYSTEM    = UTC
MEAN_ELEMENT_THEORY = SGP/SGP4

EPOCH          = 2026-03-22T22:10:12.733536
MEAN_MOTION    = 14.42357705
ECCENTRICITY   = .0016922
INCLINATION    = 74.0676
RA_OF_ASC_NODE = 66.5429
ARG_OF_PERICENTER = 237.6709
MEAN_ANOMALY   = 122.2809

EPHEMERIS_TYPE = 0
CLASSIFICATION_TYPE = U
NORAD_CAT_ID   = 11574
ELEMENT_SET_NO = 999
REV_AT_EPOCH   = 43801
BSTAR          = .56857676E-4
MEAN_MOTION_DOT = .162E-5
MEAN_MOTION_DDOT = 0

CCSDS_OMM_VERS = 2.0
CREATION_DATE  = 
ORIGINATOR     = 

OBJECT_NAME    = SL-14 R/B
OBJECT_ID      = 1980-005B
CENTER_NAME    = EARTH
REF_FRAME      = TEME
TIME_SYSTEM    = UTC
MEAN_ELEMENT_THEORY = SGP/SGP4

EPOCH          = 2026-03-22T22:46:38.841888
MEAN_MOTION    = 14.90944634
ECCENTRICITY   = .00170698
INCLINATION    = 82.5120
RA_OF_ASC_NODE = 294.6568
ARG_OF_PERICENTER = 116.7919
MEAN_ANOMALY   = 243.5049

EPHEMERIS_TYPE = 0
CLASSIFICATION_TYPE = U
NORAD_CAT_ID   = 11672
ELEMENT_SET_NO = 999
REV_AT_EPOCH   = 47846
BSTAR          = .5331481E-4
MEAN_MOTION_DOT = .553E-5
MEAN_MOTION_DDOT = 0

CCSDS_OMM_VERS = 2.0
CREATION_DATE  = 
ORIGINATOR     = 

OBJECT_NAME    = SL-8 R/B
OBJECT_ID      = 1981-003B
CENTER_NAME    = EARTH
REF_FRAME      = TEME
TIME_SYSTEM    = UTC
MEAN_ELEMENT_THEORY = SGP/SGP4

EPOCH          = 2026-03-22T18:43:26.520384
MEAN_MOTION    = 15.11525540
ECCENTRICITY   = .02613188
INCLINATION    = 82.9350
RA_OF_ASC_NODE = 277.9141
ARG_OF_PERICENTER = 133.0300
MEAN_ANOMALY   = 229.3151

EPHEMERIS_TYPE = 0
CLASSIFICATION_TYPE = U
NORAD_CAT_ID   = 12139
ELEMENT_SET_NO = 999
REV_AT_EPOCH   = 31665
BSTAR          = .63988608E-3
MEAN_MOTION_DOT = .25346E-3
MEAN_MOTION_DDOT = 0

CCSDS_OMM_VERS = 2.0
CREATION_DATE  = 
ORIGINATOR     = 

OBJECT_NAME    = SL-3 R/B
OBJECT_ID      = 1981-046B
CENTER_NAME    = EARTH
REF_FRAME      = TEME
TIME_SYSTEM    = UTC
MEAN_ELEMENT_THEORY = SGP/SGP4

EPOCH          = 2026-03-22T22:56:42.127296
MEAN_MOTION    = 15.42312323
ECCENTRICITY   = .00185179
INCLINATION    = 81.2284
RA_OF_ASC_NODE = 273.8071
ARG_OF_PERICENTER = 335.7306
MEAN_ANOMALY   = 24.3062

EPHEMERIS_TYPE = 0
CLASSIFICATION_TYPE = U
NORAD_CAT_ID   = 12465
ELEMENT_SET_NO = 999
REV_AT_EPOCH   = 44047
BSTAR          = .30250345E-3
MEAN_MOTION_DOT = .13143E-3
MEAN_MOTION_DDOT = 0

CCSDS_OMM_VERS = 2.0
CREATION_DATE  = 
ORIGINATOR     = 

OBJECT_NAME    = SL-3 R/B
OBJECT_ID      = 1981-103B
CENTER_NAME    = EARTH
REF_FRAME      = TEME
TIME_SYSTEM    = UTC
MEAN_ELEMENT_THEORY = SGP/SGP4

EPOCH          = 2026-03-22T20:38:16.898784
MEAN_MOTION    = 15.21530293
ECCENTRICITY   = .00125296
INCLINATION    = 81.1609
RA_OF_ASC_NODE = 197.9826
ARG_OF_PERICENTER = 238.9853
MEAN_ANOMALY   = 121.0148

EPHEMERIS_TYPE = 0
CLASSIFICATION_TYPE = U
NORAD_CAT_ID   = 12904
ELEMENT_SET_NO = 999
REV_AT_EPOCH   = 97523
BSTAR          = .31822664E-3
MEAN_MOTION_DOT = .7205E-4
MEAN_MOTION_DDOT = 0

CCSDS_OMM_VERS = 2.0
CREATION_DATE  = 
ORIGINATOR     = 

OBJECT_NAME    = SL-3 R/B
OBJECT_ID      = 1982-013B
CENTER_NAME    = EARTH
REF_FRAME      = TEME
TIME_SYSTEM    = UTC
MEAN_ELEMENT_THEORY = SGP/SGP4

EPOCH          = 2026-03-22T22:16:51.201696
MEAN_MOTION    = 15.22134310
ECCENTRICITY   = .00233825
INCLINATION    = 81.1741
RA_OF_ASC_NODE = 145.2544
ARG_OF_PERICENTER = 133.5662
MEAN_ANOMALY   = 226.7517

EPHEMERIS_TYPE = 0
CLASSIFICATION_TYPE = U
NORAD_CAT_ID   = 13068
ELEMENT_SET_NO = 999
REV_AT_EPOCH   = 40636
BSTAR          = .22491305E-3
MEAN_MOTION_DOT = .5219E-4
MEAN_MOTION_DDOT = 0

CCSDS_OMM_VERS = 2.0
CREATION_DATE  = 
ORIGINATOR     = 

OBJECT_NAME    = SL-3 R/B
OBJECT_ID      = 1982-039B
CENTER_NAME    = EARTH
REF_FRAME      = TEME
TIME_SYSTEM    = UTC
MEAN_ELEMENT_THEORY = SGP/SGP4

EPOCH          = 2026-03-22T21:48:44.923392
MEAN_MOTION    = 15.10152366
ECCENTRICITY   = .00290334
INCLINATION    = 81.1578
RA_OF_ASC_NODE = 200.7202
ARG_OF_PERICENTER = 280.9856
MEAN_ANOMALY   = 78.8104

EPHEMERIS_TYPE = 0
CLASSIFICATION_TYPE = U
NORAD_CAT_ID   = 13154
ELEMENT_SET_NO = 999
REV_AT_EPOCH   = 38363
BSTAR          = .19879872E-3
MEAN_MOTION_DOT = .3297E-4
MEAN_MOTION_DDOT = 0

