ATLAS CENTAUR R/B       
1 06155U 72065B   26081.53099851  .00001319  00000+0  18268-3 0  9995
2 06155  35.0005 230.4957 0032926 118.6517 241.7501 14.77721635843168
SL-8 R/B                
1 08459U 75112B   26081.85842871  .00000259  00000+0  93725-4 0  9997
2 08459  74.0636 354.6897 0014463  82.4107 277.8689 14.38211257633762
SL-3 R/B                
1 10114U 77057B   26081.92562292  .00014783  00000+0  30604-3 0  9995
2 10114  97.5793 254.4337 0006440 228.7137 131.3557 15.45861979670374
SEASAT 1                
1 10967U 78064A   26081.91547613  .00000247  00000+0  10753-3 0  9992
2 10967 108.0084 153.2513 0002537 279.6203  80.4655 14.46170608508426
SL-14 R/B               
1 11267U 79011B   26081.45783433  .00000653  00000+0  61912-4 0  9995
2 11267  82.5205  84.4511 0016549  20.5149 339.6732 14.91923548530681
SL-8 R/B                
1 11574U 79089B   26081.92375849  .00000162  00000+0  56858-4 0  9999
2 11574  74.0676  66.5429 0016922 237.6709 122.2809 14.42357705438014
SL-14 R/B               
1 11672U 80005B   26081.94906067  .00000553  00000+0  53315-4 0  9991
2 11672  82.5120 294.6568 0017069 116.7919 243.5049 14.90944634478464
SL-8 R/B                
1 12139U 81003B   26081.78016806  .00025346  00000+0  63989-3 0  9998
2 12139  82.9350 277.9141 0261318 133.0300 229.3151 15.11525540316650
SL-3 R/B                
1 12465U 81046B   26081.95604314  .00013143  00000+0  30250-3 0  9990
2 12465  81.2284 273.8071 0018517 335.7306  24.3062 15.42312323440474
SL-3 R/B                
1 12904U 81103B   26081.85991781  .00007205  00000+0  31823-3 0  9997
2 12904  81.1609 197.9826 0012529 238.9853 121.0148 15.21530293975236
SL-3 R/B                
1 13068U 82013B   26081.92837039  .00005219  00000+0  22491-3 0  9997
2 13068  81.1741 145.2544 0023382 133.5662 226.7517 15.22134310406362
SL-3 R/B                
1 13154U 82039B   26081.90885328  .00003297  00000+0  19880-3 0  9995
2 13154  81.1578 200.7202 0029033 280.9856  78.8104 15.10152366383635
